{"type": "FeatureCollection", "features": [ {"type": "Feature", "properties": {"norad_id": 66405, "name": "STARLINK-35683", "group": "last-30-days", "lat": 35.0302522587714, "lon": 94.0980551650499, "alt_km": 413.35662783372754, "timestamp": "2025-12-03T22:42:31.475057+00:00", "meta": {"OBJECT_NAME": "STARLINK-35683", "OBJECT_ID": "2025-257AB", "EPOCH": "2025-12-03T09:44:50.807040", "MEAN_MOTION": 15.49327856, "ECCENTRICITY": 0.0001212, "INCLINATION": 53.1589, "RA_OF_ASC_NODE": 308.388, "ARG_OF_PERICENTER": 100.6263, "MEAN_ANOMALY": 259.4882, "EPHEMERIS_TYPE": 0, "CLASSIFICATION_TYPE": "U", "NORAD_CAT_ID": 66405, "ELEMENT_SET_NO": 999, "REV_AT_EPOCH": 486, "BSTAR": 0.001056, "MEAN_MOTION_DOT": 0.00058763, "MEAN_MOTION_DDOT": 0}, "tle": {"line1": "1 66405U 25257AB  25337.40614360  .00058763  00000+0  10560-2 0  9998", "line2": "2 66405  53.1589 308.3880 0001212 100.6263 259.4882 15.49327856  4864"}}, "geometry": {"type": "Point", "coordinates": [94.0980551650499, 35.0302522587714]}}, {"type": "Feature", "properties": {"norad_id": 66406, "name": "STARLINK-34840", "group": "last-30-days", "lat": 30.97716016993444, "lon": 99.04262278482169, "alt_km": 413.84073856207397, "timestamp": "2025-12-03T22:42:31.475066+00:00", "meta": {"OBJECT_NAME": "STARLINK-34840", "OBJECT_ID": "2025-257AC", "EPOCH": "2025-12-03T06:37:34.829184", "MEAN_MOTION": 15.49320713, "ECCENTRICITY": 0.00013675, "INCLINATION": 53.1585, "RA_OF_ASC_NODE": 308.9978, "ARG_OF_PERICENTER": 105.7634, "MEAN_ANOMALY": 254.3526, "EPHEMERIS_TYPE": 0, "CLASSIFICATION_TYPE": "U", "NORAD_CAT_ID": 66406, "ELEMENT_SET_NO": 999, "REV_AT_EPOCH": 485, "BSTAR": 0.0013182867, "MEAN_MOTION_DOT": 0.00073594, "MEAN_MOTION_DDOT": 0}, "tle": {"line1": "1 66406U 25257AC  25337.27609756  .00073594  00000+0  13183-2 0  9990", "line2": "2 66406  53.1585 308.9978 0001367 105.7634 254.3526 15.49320713  4857"}}, "geometry": {"type": "Point", "coordinates": [99.04262278482169, 30.97716016993444]}}, {"type": "Feature", "properties": {"norad_id": 66407, "name": "STARLINK-35686", "group": "last-30-days", "lat": 33.68100269310172, "lon": 95.82314453409, "alt_km": 413.38651432464303, "timestamp": "2025-12-03T22:42:31.475075+00:00", "meta": {"OBJECT_NAME": "STARLINK-35686", "OBJECT_ID": "2025-257AD", "EPOCH": "2025-12-03T09:44:21.163200", "MEAN_MOTION": 15.49336443, "ECCENTRICITY": 0.0001508, "INCLINATION": 53.1588, "RA_OF_ASC_NODE": 308.3859, "ARG_OF_PERICENTER": 95.1639, "MEAN_ANOMALY": 264.9542, "EPHEMERIS_TYPE": 0, "CLASSIFICATION_TYPE": "U", "NORAD_CAT_ID": 66407, "ELEMENT_SET_NO": 999, "REV_AT_EPOCH": 493, "BSTAR": 0.0014445, "MEAN_MOTION_DOT": 0.00080801, "MEAN_MOTION_DDOT": 0}, "tle": {"line1": "1 66407U 25257AD  25337.40580050  .00080801  00000+0  14445-2 0  9992", "line2": "2 66407  53.1588 308.3859 0001508  95.1639 264.9542 15.49336443  4938"}}, "geometry": {"type": "Point", "coordinates": [95.82314453409, 33.68100269310172]}}, {"type": "Feature", "properties": {"norad_id": 66408, "name": "STARLINK-35679", "group": "last-30-days", "lat": 32.3058102067589, "lon": 97.49893388524517, "alt_km": 413.5043161411277, "timestamp": "2025-12-03T22:42:31.475090+00:00", "meta": {"OBJECT_NAME": "STARLINK-35679", "OBJECT_ID": "2025-257AE", "EPOCH": "2025-12-03T09:43:51.483072", "MEAN_MOTION": 15.49347973, "ECCENTRICITY": 0.0001591, "INCLINATION": 53.1591, "RA_OF_ASC_NODE": 308.3848, "ARG_OF_PERICENTER": 93.6095, "MEAN_ANOMALY": 266.5096, "EPHEMERIS_TYPE": 0, "CLASSIFICATION_TYPE": "U", "NORAD_CAT_ID": 66408, "ELEMENT_SET_NO": 999, "REV_AT_EPOCH": 493, "BSTAR": 0.0018447, "MEAN_MOTION_DOT": 0.00103662, "MEAN_MOTION_DDOT": 0}, "tle": {"line1": "1 66408U 25257AE  25337.40545698  .00103662  00000+0  18447-2 0  9999", "line2": "2 66408  53.1591 308.3848 0001591  93.6095 266.5096 15.49347973  4934"}}, "geometry": {"type": "Point", "coordinates": [97.49893388524517, 32.3058102067589]}}, {"type": "Feature", "properties": {"norad_id": 66409, "name": "CHUTIAN-2 A", "group": "last-30-days", "lat": -76.8330140087554, "lon": 81.34665312776775, "alt_km": 730.936853188744, "timestamp": "2025-12-03T22:42:31.475099+00:00", "meta": {"OBJECT_NAME": "CHUTIAN-2 A", "OBJECT_ID": "2025-256A", "EPOCH": "2025-12-03T13:08:20.160384", "MEAN_MOTION": 14.49916691, "ECCENTRICITY": 0.0013284, "INCLINATION": 98.2775, "RA_OF_ASC_NODE": 42.4715, "ARG_OF_PERICENTER": 205.5828, "MEAN_ANOMALY": 154.4711, "EPHEMERIS_TYPE": 0, "CLASSIFICATION_TYPE": "U", "NORAD_CAT_ID": 66409, "ELEMENT_SET_NO": 999, "REV_AT_EPOCH": 354, "BSTAR": 3.9049e-05, "MEAN_MOTION_DOT": 1.07e-06, "MEAN_MOTION_DDOT": 0}, "tle": {"line1": "1 66409U 25256A   25337.54745556  .00000107  00000+0  39049-4 0  9992", "line2": "2 66409  98.2775  42.4715 0013284 205.5828 154.4711 14.49916691  3541"}}, "geometry": {"type": "Point", "coordinates": [81.34665312776775, -76.8330140087554]}}, {"type": "Feature", "properties": {"norad_id": 66410, "name": "CHUTIAN-2 B", "group": "last-30-days", "lat": -16.92257457154845, "lon": 45.4358457957405, "alt_km": 733.8039087713232, "timestamp": "2025-12-03T22:42:31.475109+00:00", "meta": {"OBJECT_NAME": "CHUTIAN-2 B", "OBJECT_ID": "2025-256B", "EPOCH": "2025-12-03T12:51:27.224064", "MEAN_MOTION": 14.51005146, "ECCENTRICITY": 0.0013259, "INCLINATION": 98.2794, "RA_OF_ASC_NODE": 42.4927, "ARG_OF_PERICENTER": 210.1229, "MEAN_ANOMALY": 149.9204, "EPHEMERIS_TYPE": 0, "CLASSIFICATION_TYPE": "U", "NORAD_CAT_ID": 66410, "ELEMENT_SET_NO": 999, "REV_AT_EPOCH": 354, "BSTAR": 0.00016082, "MEAN_MOTION_DOT": 5.92e-06, "MEAN_MOTION_DDOT": 0}, "tle": {"line1": "1 66410U 25256B   25337.53573176  .00000592  00000+0  16082-3 0  9999", "line2": "2 66410  98.2794  42.4927 0013259 210.1229 149.9204 14.51005146  3541"}}, "geometry": {"type": "Point", "coordinates": [45.4358457957405, -16.92257457154845]}}, {"type": "Feature", "properties": {"norad_id": 66411, "name": "ZK-1A R/B", "group": "last-30-days", "lat": 38.98911945422292, "lon": -128.1032482724978, "alt_km": 667.6344641505075, "timestamp": "2025-12-03T22:42:31.475118+00:00", "meta": {"OBJECT_NAME": "ZK-1A R/B", "OBJECT_ID": "2025-256C", "EPOCH": "2025-12-03T10:52:14.170656", "MEAN_MOTION": 15.01618732, "ECCENTRICITY": 0.0229621, "INCLINATION": 98.3251, "RA_OF_ASC_NODE": 44.5601, "ARG_OF_PERICENTER": 276.0314, "MEAN_ANOMALY": 81.4787, "EPHEMERIS_TYPE": 0, "CLASSIFICATION_TYPE": "U", "NORAD_CAT_ID": 66411, "ELEMENT_SET_NO": 999, "REV_AT_EPOCH": 365, "BSTAR": 0.00078037, "MEAN_MOTION_DOT": 0.00017915, "MEAN_MOTION_DDOT": 0}, "tle": {"line1": "1 66411U 25256C   25337.45294179  .00017915  00000+0  78037-3 0  9999", "line2": "2 66411  98.3251  44.5601 0229621 276.0314  81.4787 15.01618732  3656"}}, "geometry": {"type": "Point", "coordinates": [-128.1032482724978, 38.98911945422292]}}, {"type": "Feature", "properties": {"norad_id": 66412, "name": "HULIANWANG DIGUI 13A", "group": "last-30-days", "lat": 45.08625261539791, "lon": -3.6591515985573, "alt_km": 809.1623517762446, "timestamp": "2025-12-03T22:42:31.475127+00:00", "meta": {"OBJECT_NAME": "HULIANWANG DIGUI 13A", "OBJECT_ID": "2025-258A", "EPOCH": "2025-12-03T08:54:50.699232", "MEAN_MOTION": 14.23491652, "ECCENTRICITY": 0.00140899, "INCLINATION": 50.0041, "RA_OF_ASC_NODE": 301.4032, "ARG_OF_PERICENTER": 324.7916, "MEAN_ANOMALY": 35.2065, "EPHEMERIS_TYPE": 0, "CLASSIFICATION_TYPE": "U", "NORAD_CAT_ID": 66412, "ELEMENT_SET_NO": 999, "REV_AT_EPOCH": 332, "BSTAR": 0.00011435955, "MEAN_MOTION_DOT": 1.03e-06, "MEAN_MOTION_DDOT": 0}, "tle": {"line1": "1 66412U 25258A   25337.37142013  .00000103  00000+0  11436-3 0  9993", "line2": "2 66412  50.0041 301.4032 0014089 324.7916  35.2065 14.23491652  3324"}}, "geometry": {"type": "Point", "coordinates": [-3.6591515985573, 45.08625261539791]}}, {"type": "Feature", "properties": {"norad_id": 66413, "name": "HULIANWANG DIGUI 13B", "group": "last-30-days", "lat": 21.246305516715562, "lon": -41.90007324200103, "alt_km": 806.3282957833744, "timestamp": "2025-12-03T22:42:31.475137+00:00", "meta": {"OBJECT_NAME": "HULIANWANG DIGUI 13B", "OBJECT_ID": "2025-258B", "EPOCH": "2025-12-03T07:24:47.195712", "MEAN_MOTION": 14.23482429, "ECCENTRICITY": 0.00134003, "INCLINATION": 50.0005, "RA_OF_ASC_NODE": 301.729, "ARG_OF_PERICENTER": 325.1435, "MEAN_ANOMALY": 34.8599, "EPHEMERIS_TYPE": 0, "CLASSIFICATION_TYPE": "U", "NORAD_CAT_ID": 66413, "ELEMENT_SET_NO": 999, "REV_AT_EPOCH": 331, "BSTAR": 0.00010247727, "MEAN_MOTION_DOT": 7.5e-07, "MEAN_MOTION_DDOT": 0}, "tle": {"line1": "1 66413U 25258B   25337.30887958  .00000075  00000+0  10248-3 0  9999", "line2": "2 66413  50.0005 301.7290 0013400 325.1435  34.8599 14.23482429  3319"}}, "geometry": {"type": "Point", "coordinates": [-41.90007324200103, 21.246305516715562]}}, {"type": "Feature", "properties": {"norad_id": 66414, "name": "HULIANWANG DIGUI 13C", "group": "last-30-days", "lat": 32.466671519943944, "lon": -28.683602546474365, "alt_km": 807.2386783292068, "timestamp": "2025-12-03T22:42:31.475146+00:00", "meta": {"OBJECT_NAME": "HULIANWANG DIGUI 13C", "OBJECT_ID": "2025-258C", "EPOCH": "2025-12-03T09:01:20.161920", "MEAN_MOTION": 14.23508318, "ECCENTRICITY": 0.0013568, "INCLINATION": 50.0048, "RA_OF_ASC_NODE": 301.4316, "ARG_OF_PERICENTER": 323.7706, "MEAN_ANOMALY": 36.2287, "EPHEMERIS_TYPE": 0, "CLASSIFICATION_TYPE": "U", "NORAD_CAT_ID": 66414, "ELEMENT_SET_NO": 999, "REV_AT_EPOCH": 332, "BSTAR": 0.00012688285, "MEAN_MOTION_DOT": 1.31e-06, "MEAN_MOTION_DDOT": 0}, "tle": {"line1": "1 66414U 25258C   25337.37592780  .00000131  00000+0  12688-3 0  9996", "line2": "2 66414  50.0048 301.4316 0013568 323.7706  36.2287 14.23508318  3320"}}, "geometry": {"type": "Point", "coordinates": [-28.683602546474365, 32.466671519943944]}}]}